[{"OBJECT_NAME":"CHUANGXIN 1-02 (CX-1-02)","OBJECT_ID":"2008-056B","EPOCH":"2026-03-09T22:48:06.707232","MEAN_MOTION":14.30130448,"ECCENTRICITY":0.00153994,"INCLINATION":98.625,"RA_OF_ASC_NODE":96.1592,"ARG_OF_PERICENTER":73.2963,"MEAN_ANOMALY":286.9908,"EPHEMERIS_TYPE":0,"CLASSIFICATION_TYPE":"U","NORAD_CAT_ID":33434,"ELEMENT_SET_NO":999,"REV_AT_EPOCH":90443,"BSTAR":1.1632331e-5,"MEAN_MOTION_DOT":-1.4e-7,"MEAN_MOTION_DDOT":0},{"OBJECT_NAME":"FENGYUN 1C DEB","OBJECT_ID":"1999-025EYU","EPOCH":"2026-03-03T04:39:48.479040","MEAN_MOTION":14.22437338,"ECCENTRICITY":0.01195819,"INCLINATION":98.5342,"RA_OF_ASC_NODE":51.5745,"ARG_OF_PERICENTER":172.1063,"MEAN_ANOMALY":188.2035,"EPHEMERIS_TYPE":0,"CLASSIFICATION_TYPE":"U","NORAD_CAT_ID":46439,"ELEMENT_SET_NO":999,"REV_AT_EPOCH":61507,"BSTAR":0.00025744914,"MEAN_MOTION_DOT":5.75e-6,"MEAN_MOTION_DDOT":0}]
